start=new Date('2023-01-23T00:00:00.000Z').valueOf();
sats=[{"OBJECT_NAME":"STARLINK-5241","TLE_LINE1":"1 54204U 22141AZ  23022.58334491 -.01105164  00000-0 -58075-1 0  9997","TIME_SYSTEM":"UTC","OBJECT_TYPE":"PAYLOAD","DECAY_DATE":null,"APOAPSIS":"512.689","EPHEMERIS_TYPE":"0","SITE":"AFWTR","MEAN_MOTION_DOT":"-0.01105164","PERIAPSIS":"511.096","REV_AT_EPOCH":"1381","OBJECT_ID":"2022-141AZ","COUNTRY_CODE":"US","PERIOD":"94.862","RA_OF_ASC_NODE":"80.9221","RCS_SIZE":"LARGE","INCLINATION":"53.2128","TLE_LINE2":"2 54204  53.2128  80.9221 0001156  75.4388 261.4532 15.17998572 13818","MEAN_ELEMENT_THEORY":"SGP4","SEMIMAJOR_AXIS":"6890.027","EPOCH":"2023-01-22T14:00:01.000224","CENTER_NAME":"EARTH","MEAN_MOTION_DDOT":"0.0000000000000","CLASSIFICATION_TYPE":"U","NORAD_CAT_ID":"54204","REF_FRAME":"TEME","BSTAR":"-0.05807500000000","ARG_OF_PERICENTER":"75.4388","LAUNCH_DATE":"2022-10-28","ELEMENT_SET_NO":"999","MEAN_ANOMALY":"261.4532","GP_ID":"223589310","MEAN_MOTION":"15.17998572","ECCENTRICITY":"0.00011560","FILE":"3757688"},{"RA_OF_ASC_NODE":"80.9854","PERIOD":"94.901","COUNTRY_CODE":"US","OBJECT_ID":"2022-141BA","REV_AT_EPOCH":"1381","PERIAPSIS":"512.920","RCS_SIZE":"LARGE","TLE_LINE1":"1 54205U 22141BA  23022.58334491 -.01099712  00000-0 -58812-1 0  9998","OBJECT_NAME":"STARLINK-5249","MEAN_MOTION_DOT":"-0.01099712","SITE":"AFWTR","APOAPSIS":"514.626","EPHEMERIS_TYPE":"0","DECAY_DATE":null,"TIME_SYSTEM":"UTC","OBJECT_TYPE":"PAYLOAD","MEAN_MOTION":"15.17377159","GP_ID":"223589320","ECCENTRICITY":"0.00012380","MEAN_ANOMALY":"215.3252","ELEMENT_SET_NO":"999","FILE":"3757688","MEAN_MOTION_DDOT":"0.0000000000000","CENTER_NAME":"EARTH","SEMIMAJOR_AXIS":"6891.908","TLE_LINE2":"2 54205  53.2120  80.9854 0001238  89.6162 215.3252 15.17377159 13810","MEAN_ELEMENT_THEORY":"SGP4","EPOCH":"2023-01-22T14:00:01.000224","INCLINATION":"53.2120","LAUNCH_DATE":"2022-10-28","ARG_OF_PERICENTER":"89.6162","BSTAR":"-0.05881200000000","REF_FRAME":"TEME","NORAD_CAT_ID":"54205","CLASSIFICATION_TYPE":"U"},{"COUNTRY_CODE":"US","RA_OF_ASC_NODE":"77.3387","PERIOD":"91.533","PERIAPSIS":"349.064","REV_AT_EPOCH":"1382","OBJECT_ID":"2022-141BB","RCS_SIZE":"LARGE","OBJECT_NAME":"STARLINK-5264","TLE_LINE1":"1 54206U 22141BB  23022.14589553  .00002362  00000-0  21243-4 0  9995","APOAPSIS":"350.465","EPHEMERIS_TYPE":"0","SITE":"AFWTR","MEAN_MOTION_DOT":"0.00002362","TIME_SYSTEM":"UTC","OBJECT_TYPE":"PAYLOAD","DECAY_DATE":null,"ELEMENT_SET_NO":"999","MEAN_ANOMALY":"254.3240","GP_ID":"223581866","ECCENTRICITY":"0.00010410","MEAN_MOTION":"15.73198388","FILE":"3757357","CENTER_NAME":"EARTH","MEAN_MOTION_DDOT":"0.0000000000000","INCLINATION":"53.2169","EPOCH":"2023-01-22T03:30:05.373792","TLE_LINE2":"2 54206  53.2169  77.3387 0001041 105.7895 254.3240 15.73198388 13828","SEMIMAJOR_AXIS":"6727.900","MEAN_ELEMENT_THEORY":"SGP4","REF_FRAME":"TEME","BSTAR":"0.00002124300000","ARG_OF_PERICENTER":"105.7895","LAUNCH_DATE":"2022-10-28","NORAD_CAT_ID":"54206","CLASSIFICATION_TYPE":"U"},{"TLE_LINE1":"1 54207U 22141BC  23022.91667824 -.01122070  00000-0 -60976-1 0  9994","OBJECT_NAME":"STARLINK-5262","DECAY_DATE":null,"OBJECT_TYPE":"PAYLOAD","TIME_SYSTEM":"UTC","SITE":"AFWTR","MEAN_MOTION_DOT":"-0.01122070","EPHEMERIS_TYPE":"0","APOAPSIS":"516.069","OBJECT_ID":"2022-141BC","REV_AT_EPOCH":"1386","PERIAPSIS":"514.499","RA_OF_ASC_NODE":"79.4361","PERIOD":"94.932","COUNTRY_CODE":"US","RCS_SIZE":"LARGE","SEMIMAJOR_AXIS":"6893.419","TLE_LINE2":"2 54207  53.2124  79.4361 0001139  92.2522 250.4986 15.16878421 13868","MEAN_ELEMENT_THEORY":"SGP4","EPOCH":"2023-01-22T22:00:00.999936","INCLINATION":"53.2124","MEAN_MOTION_DDOT":"0.0000000000000","CENTER_NAME":"EARTH","NORAD_CAT_ID":"54207","CLASSIFICATION_TYPE":"U","LAUNCH_DATE":"2022-10-28","ARG_OF_PERICENTER":"92.2522","BSTAR":"-0.06097600000000","REF_FRAME":"TEME","GP_ID":"223597372","ECCENTRICITY":"0.00011390","MEAN_MOTION":"15.16878421","MEAN_ANOMALY":"250.4986","ELEMENT_SET_NO":"999","FILE":"3758075"},{"PERIAPSIS":"349.052","REV_AT_EPOCH":"1332","OBJECT_ID":"2022-141BD","COUNTRY_CODE":"US","PERIOD":"91.524","RA_OF_ASC_NODE":"86.0738","RCS_SIZE":"LARGE","OBJECT_NAME":"STARLINK-5255","TLE_LINE1":"1 54208U 22141BD  23020.46730223  .00109998  00000-0  77251-3 0  9994","TIME_SYSTEM":"UTC","OBJECT_TYPE":"PAYLOAD","DECAY_DATE":null,"APOAPSIS":"349.535","EPHEMERIS_TYPE":"0","MEAN_MOTION_DOT":"0.00109998","SITE":"AFWTR","ELEMENT_SET_NO":"999","MEAN_ANOMALY":"60.6061","MEAN_MOTION":"15.73363714","GP_ID":"223550221","ECCENTRICITY":"0.00003590","FILE":"3755973","INCLINATION":"53.2166","TLE_LINE2":"2 54208  53.2166  86.0738 0000359 299.4923  60.6061 15.73363714 13329","SEMIMAJOR_AXIS":"6727.428","EPOCH":"2023-01-20T11:12:54.912672","MEAN_ELEMENT_THEORY":"SGP4","CENTER_NAME":"EARTH","MEAN_MOTION_DDOT":"0.0000000000000","NORAD_CAT_ID":"54208","CLASSIFICATION_TYPE":"U","REF_FRAME":"TEME","ARG_OF_PERICENTER":"299.4923","BSTAR":"0.00077251000000","LAUNCH_DATE":"2022-10-28"},{"FILE":"3758075","ELEMENT_SET_NO":"999","GP_ID":"223597379","MEAN_MOTION":"15.73199127","ECCENTRICITY":"0.00009330","MEAN_ANOMALY":"282.0729","CLASSIFICATION_TYPE":"U","NORAD_CAT_ID":"54209","REF_FRAME":"TEME","LAUNCH_DATE":"2022-10-28","ARG_OF_PERICENTER":"78.0396","BSTAR":"0.00005165100000","TLE_LINE2":"2 54209  53.2160  74.7560 0000933  78.0396 282.0729 15.73199127 13915","EPOCH":"2023-01-22T18:06:14.712480","SEMIMAJOR_AXIS":"6727.898","MEAN_ELEMENT_THEORY":"SGP4","INCLINATION":"53.2160","CENTER_NAME":"EARTH","MEAN_MOTION_DDOT":"0.0000000000000","RCS_SIZE":"LARGE","PERIAPSIS":"349.135","OBJECT_ID":"2022-141BE","REV_AT_EPOCH":"1391","COUNTRY_CODE":"US","PERIOD":"91.533","RA_OF_ASC_NODE":"74.7560","TIME_SYSTEM":"UTC","OBJECT_TYPE":"PAYLOAD","DECAY_DATE":null,"MEAN_MOTION_DOT":"0.00006635","SITE":"AFWTR","EPHEMERIS_TYPE":"0","APOAPSIS":"350.390","TLE_LINE1":"1 54209U 22141BE  23022.75433695  .00006635  00000-0  51651-4 0  9993","OBJECT_NAME":"STARLINK-5259"},{"RCS_SIZE":"LARGE","COUNTRY_CODE":"US","RA_OF_ASC_NODE":"128.5257","PERIOD":"92.909","PERIAPSIS":"416.362","REV_AT_EPOCH":"412","OBJECT_ID":"2022-175A","EPHEMERIS_TYPE":"0","APOAPSIS":"417.646","SITE":"AFETR","MEAN_MOTION_DOT":"-0.00027834","TIME_SYSTEM":"UTC","OBJECT_TYPE":"PAYLOAD","DECAY_DATE":null,"OBJECT_NAME":"STARLINK-5464","TLE_LINE1":"1 54758U 22175A   23022.91667824 -.00027834  00000-0 -48385-3 0  9995","FILE":"3758190","ELEMENT_SET_NO":"999","MEAN_ANOMALY":"23.4043","ECCENTRICITY":"0.00009450","GP_ID":"223600138","MEAN_MOTION":"15.49905492","REF_FRAME":"TEME","ARG_OF_PERICENTER":"77.6651","BSTAR":"-0.00048385000000","LAUNCH_DATE":"2022-12-17","CLASSIFICATION_TYPE":"U","NORAD_CAT_ID":"54758","CENTER_NAME":"EARTH","MEAN_MOTION_DDOT":"0.0000000000000","INCLINATION":"53.2148","EPOCH":"2023-01-22T22:00:00.999936","TLE_LINE2":"2 54758  53.2148 128.5257 0000945  77.6651  23.4043 15.49905492  4125","SEMIMAJOR_AXIS":"6795.139","MEAN_ELEMENT_THEORY":"SGP4"},{"ELEMENT_SET_NO":"999","MEAN_ANOMALY":"26.1634","ECCENTRICITY":"0.00010280","GP_ID":"223600292","MEAN_MOTION":"15.49906039","FILE":"3758214","CENTER_NAME":"EARTH","MEAN_MOTION_DDOT":"0.0000000000000","INCLINATION":"53.2146","EPOCH":"2023-01-22T22:00:00.999936","TLE_LINE2":"2 54759  53.2146 128.5176 0001028  77.5081  26.1634 15.49906039  5409","SEMIMAJOR_AXIS":"6795.138","MEAN_ELEMENT_THEORY":"SGP4","REF_FRAME":"TEME","ARG_OF_PERICENTER":"77.5081","BSTAR":"-0.00067098000000","LAUNCH_DATE":"2022-12-17","CLASSIFICATION_TYPE":"U","NORAD_CAT_ID":"54759","COUNTRY_CODE":"US","PERIOD":"92.909","RA_OF_ASC_NODE":"128.5176","PERIAPSIS":"416.304","REV_AT_EPOCH":"540","OBJECT_ID":"2022-175B","RCS_SIZE":"LARGE","OBJECT_NAME":"STARLINK-5215","TLE_LINE1":"1 54759U 22175B   23022.91667824 -.00038374  00000-0 -67098-3 0  9999","APOAPSIS":"417.701","EPHEMERIS_TYPE":"0","SITE":"AFETR","MEAN_MOTION_DOT":"-0.00038374","TIME_SYSTEM":"UTC","OBJECT_TYPE":"PAYLOAD","DECAY_DATE":null},{"FILE":"3757566","ELEMENT_SET_NO":"999","GP_ID":"223586989","ECCENTRICITY":"0.00014580","MEAN_MOTION":"15.33705475","MEAN_ANOMALY":"42.7085","CLASSIFICATION_TYPE":"U","NORAD_CAT_ID":"54760","REF_FRAME":"TEME","LAUNCH_DATE":"2022-12-17","ARG_OF_PERICENTER":"89.6980","BSTAR":"-0.04059100000000","EPOCH":"2023-01-22T08:00:01.000224","TLE_LINE2":"2 54760  53.2160 133.3854 0001458  89.6980  42.7085 15.33705475  5287","SEMIMAJOR_AXIS":"6842.905","MEAN_ELEMENT_THEORY":"SGP4","INCLINATION":"53.2160","CENTER_NAME":"EARTH","MEAN_MOTION_DDOT":"0.0000000000000","RCS_SIZE":"LARGE","PERIAPSIS":"463.773","OBJECT_ID":"2022-175C","REV_AT_EPOCH":"528","COUNTRY_CODE":"US","PERIOD":"93.890","RA_OF_ASC_NODE":"133.3854","OBJECT_TYPE":"PAYLOAD","TIME_SYSTEM":"UTC","DECAY_DATE":null,"SITE":"AFETR","MEAN_MOTION_DOT":"-0.01216040","EPHEMERIS_TYPE":"0","APOAPSIS":"465.768","TLE_LINE1":"1 54760U 22175C   23022.33334491 -.01216040  00000-0 -40591-1 0  9994","OBJECT_NAME":"STARLINK-5220"},{"RCS_SIZE":"LARGE","PERIOD":"93.910","RA_OF_ASC_NODE":"133.4025","COUNTRY_CODE":"US","REV_AT_EPOCH":"528","OBJECT_ID":"2022-175D","PERIAPSIS":"464.731","APOAPSIS":"466.686","EPHEMERIS_TYPE":"0","MEAN_MOTION_DOT":"-0.01216199","SITE":"AFETR","DECAY_DATE":null,"OBJECT_TYPE":"PAYLOAD","TIME_SYSTEM":"UTC","OBJECT_NAME":"STARLINK-5202","TLE_LINE1":"1 54761U 22175D   23022.33334491 -.01216199  00000-0 -41007-1 0  9993","FILE":"3757556","MEAN_ANOMALY":"39.8328","ECCENTRICITY":"0.00014280","GP_ID":"223586684","MEAN_MOTION":"15.33390136","ELEMENT_SET_NO":"999","BSTAR":"-0.04100700000000","ARG_OF_PERICENTER":"83.4717","LAUNCH_DATE":"2022-12-17","REF_FRAME":"TEME","CLASSIFICATION_TYPE":"U","NORAD_CAT_ID":"54761","MEAN_MOTION_DDOT":"0.0000000000000","CENTER_NAME":"EARTH","INCLINATION":"53.2160","SEMIMAJOR_AXIS":"6843.843","TLE_LINE2":"2 54761  53.2160 133.4025 0001428  83.4717  39.8328 15.33390136  5287","EPOCH":"2023-01-22T08:00:01.000224","MEAN_ELEMENT_THEORY":"SGP4"}];
